QIANFAN-49              
1 62250U 24232P   26026.50103211  .00000048  00000+0  54883-4 0  9990
2 62250  89.0002  36.7138 0016009  68.8252 291.4608 13.50984231 73883
QIANFAN-50              
1 62251U 24232Q   26026.45172921  .00000047  00000+0  54430-4 0  9996
2 62251  89.0008  36.7294 0017680  69.9292 290.3760 13.50981087 73901
QIANFAN-51              
1 62252U 24232R   26026.50928451  .00000033  00000+0  31939-4 0  9994
2 62252  89.0001  36.7147 0015211  73.4224 286.8597 13.50983648 73908
QIANFAN-52              
1 62253U 24232S   26026.46408301  .00000038  00000+0  40317-4 0  9992
2 62253  88.9998  36.5912 0017129  66.4361 293.8587 13.50993851 73986
QIANFAN-53              
1 62254U 24232T   26026.44341764  .00000041  00000+0  45136-4 0  9998
2 62254  89.0005  36.7010 0016026  67.5596 292.7251 13.50984374 73948
QIANFAN-54              
1 62255U 24232U   26026.48454388  .00000041  00000+0  44873-4 0  9997
2 62255  88.9997  36.3713 0004038  98.6177 261.5432 13.50984863105453
QIANFAN-55              
1 62785U 25016A   26026.51047718  .00000126  00000+0  17576-3 0  9998
2 62785  88.9755  98.5898 0016710 212.7272 147.2845 13.50990833 53232
QIANFAN-56              
1 62786U 25016B   26026.45284933  .00000143  00000+0  20258-3 0  9994
2 62786  88.9728  98.4201 0015278 214.7962 145.2192 13.50993136 53272
